H1 CPF 01  gfz 2021 06 21 00  6721 tandemx   
H2 1003001  6202 36605    2021 06 21 00 59 42 2021 06 26 00 00 42   120 1 1  0 0 0
H9
10 0 59389  42462.000000  0    -981000.417   3173278.767  -6042271.305
10 0 59389  42582.000000  0    -930821.426   3958729.662  -5567744.862
10 0 59389  42702.000000  0    -851349.897   4674335.649  -4995893.139
10 0 59389  42822.000000  0    -745286.174   5307103.907  -4336624.348
10 0 59389  42942.000000  0    -616009.952   5845505.255  -3601393.528
10 0 59389  43062.000000  0    -467496.403   6279693.769  -2803011.571
10 0 59389  43182.000000  0    -304217.427   6601698.696  -1955427.909
10 0 59389  43302.000000  0    -131030.420   6805583.612  -1073488.526
10 0 59389  43422.000000  0      46943.329   6887567.716   -172674.060
10 0 59389  43542.000000  0     224447.961   6846105.743    731177.132
10 0 59389  43662.000000  0     396226.519   6681923.578   1622155.785
10 0 59389  43782.000000  0     557154.239   6398006.742   2484571.418
10 0 59389  43902.000000  0     702367.911   5999542.828   3303236.231
10 0 59389  44022.000000  0     827389.183   5493821.705   4063739.005
10 0 59389  44142.000000  0     928240.614   4890096.356   4752704.022
10 0 59389  44262.000000  0    1001546.614   4199400.433   5358031.652
10 0 59389  44382.000000  0    1044620.964   3434335.187   5869105.462
10 0 59389  44502.000000  0    1055538.833   2608832.269   6276974.343
10 0 59389  44622.000000  0    1033189.598   1737893.279   6574504.133
10 0 59389  44742.000000  0     977311.301    837312.458   6756496.645
10 0 59389  44862.000000  0     888505.905    -76611.814   6819774.023
10 0 59389  44982.000000  0     768234.964   -987370.604   6763231.221
10 0 59389  45102.000000  0     618795.470  -1878542.704   6587855.245
10 0 59389  45222.000000  0     443276.168  -2734090.556   6296709.259
10 0 59389  45342.000000  0     245495.121  -3538650.762   5894882.070
10 0 59389  45462.000000  0      29920.149  -4277811.035   5389401.558
10 0 59389  45582.000000  0    -198426.199  -4938370.460   4789118.402
10 0 59389  45702.000000  0    -434076.173  -5508582.570   4104559.419
10 0 59389  45822.000000  0    -671240.234  -5978375.177   3347746.969
10 0 59389  45942.000000  0    -903940.861  -6339537.957   2531988.765
10 0 59389  46062.000000  0   -1126152.311  -6585875.162   1671642.507
10 0 59389  46182.000000  0   -1331944.344  -6713321.186    781860.076
10 0 59389  46302.000000  0   -1515627.588  -6720013.502   -121687.599
10 0 59389  46422.000000  0   -1671893.238  -6606319.462  -1023095.737
10 0 59389  46542.000000  0   -1795945.211  -6374818.542  -1906514.303
10 0 59389  46662.000000  0   -1883621.849  -6030240.832  -2756434.203
10 0 59389  46782.000000  0   -1931504.261  -5579363.046  -3557965.611
10 0 59389  46902.000000  0   -1937008.118  -5030864.242  -4297101.737
10 0 59389  47022.000000  0   -1898456.627  -4395146.615  -4960961.719
10 0 59389  47142.000000  0   -1815133.814  -3684127.567  -5538009.108
10 0 59389  47262.000000  0   -1687317.357  -2911008.131  -6018243.982
10 0 59389  47382.000000  0   -1516290.224  -2090021.953  -6393366.471
10 0 59389  47502.000000  0   -1304331.141  -1236170.148  -6656908.484
10 0 59389  47622.000000  0   -1054685.208   -364948.471  -6804333.919
10 0 59389  47742.000000  0    -771514.948    507929.604  -6833107.911
10 0 59389  47862.000000  0    -459831.381   1366809.237  -6742735.101
10 0 59389  47982.000000  0    -125407.682   2196367.491  -6534767.008
10 0 59389  48102.000000  0     225323.632   2981879.891  -6212779.568
10 0 59389  48222.000000  0     585391.015   3709478.789  -5782319.715
10 0 59389  48342.000000  0     947418.260   4366397.124  -5250818.457
10 0 59389  48462.000000  0    1303770.401   4941194.617  -4627474.416
10 0 59389  48582.000000  0    1646710.215   5423964.107  -3923105.995
10 0 59389  48702.000000  0    1968561.790   5806511.257  -3149972.538
10 0 59389  48822.000000  0    2261877.488   6082504.508  -2321568.276
10 0 59389  48942.000000  0    2519605.285   6247592.136  -1452390.377
10 0 59389  49062.000000  0    2735251.943   6299481.682   -557684.052
10 0 59389  49182.000000  0    2903037.521   6237978.050    346829.754
10 0 59389  49302.000000  0    3018037.149   6064979.296   1245237.215
10 0 59389  49422.000000  0    3076306.545   5784431.211   2121719.324
10 0 59389  49542.000000  0    3074987.925   5402240.800   2960838.909
10 0 59389  49662.000000  0    3012393.883   4926150.318   3747820.427
10 0 59389  49782.000000  0    2888067.489   4365575.926   4468816.165
10 0 59389  49902.000000  0    2702814.612   3731413.898   5111155.284
10 0 59389  50022.000000  0    2458708.242   3035818.795   5663565.238
10 0 59389  50142.000000  0    2159069.197   2291963.913   6116364.688
10 0 59389  50262.000000  0    1808421.563   1513786.980   6461629.300
10 0 59389  50382.000000  0    1412422.354    715724.064   6693324.739
10 0 59389  50502.000000  0     977768.253    -87559.644   6807404.751
10 0 59389  50622.000000  0     512081.822   -881437.913   6801878.207
10 0 59389  50742.000000  0      23777.507  -1651590.228   6676842.753
10 0 59389  50862.000000  0    -478090.639  -2384260.020   6434482.765
10 0 59389  50982.000000  0    -983996.571  -3066500.951   6079032.575
10 0 59389  51102.000000  0   -1484120.649  -3686406.130   5616705.221
10 0 59389  51222.000000  0   -1968538.082  -4233318.072   5055591.062
10 0 59389  51342.000000  0   -2427416.564  -4698017.807   4405524.341
10 0 59389  51462.000000  0   -2851218.233  -5072888.366   3677916.216
10 0 59389  51582.000000  0   -3230899.617  -5352047.519   2885555.801
10 0 59389  51702.000000  0   -3558104.525  -5531445.683   2042384.444
10 0 59389  51822.000000  0   -3825346.890  -5608928.670   1163247.791
10 0 59389  51942.000000  0   -4026179.200  -5584262.667    263628.790
10 0 59389  52062.000000  0   -4155341.701  -5459120.464   -640632.409
10 0 59389  52182.000000  0   -4208888.569  -5237029.252  -1533626.564
10 0 59389  52302.000000  0   -4184287.032  -4923279.991  -2399664.588
10 0 59389  52422.000000  0   -4080487.172  -4524801.349  -3223560.360
10 0 59389  52542.000000  0   -3897960.816  -4050002.612  -3990900.729
10 0 59389  52662.000000  0   -3638709.520  -3508590.682  -4688297.300
10 0 59389  52782.000000  0   -3306242.462  -2911365.928  -5303616.354
10 0 59389  52902.000000  0   -2905524.869  -2270001.452  -5826182.612
10 0 59389  53022.000000  0   -2442899.321  -1596811.958  -6246954.653
10 0 59389  53142.000000  0   -1925980.950   -904516.082  -6558670.953
10 0 59389  53262.000000  0   -1363528.839   -205997.107  -6755963.225
10 0 59389  53382.000000  0    -765297.975    485932.513  -6835437.543
10 0 59389  53502.000000  0    -141873.124   1158759.915  -6795726.508
10 0 59389  53622.000000  0     495513.757   1800492.143  -6637509.876
10 0 59389  53742.000000  0    1135179.941   2399864.459  -6363506.317
10 0 59389  53862.000000  0    1765202.219   2946535.408  -5978432.359
10 0 59389  53982.000000  0    2373634.655   3431264.639  -5488929.321
10 0 59389  54102.000000  0    2948732.175   3846069.886  -4903459.067
10 0 59389  54222.000000  0    3479176.091   4184362.665  -4232169.829
10 0 59389  54342.000000  0    3954298.516   4441059.468  -3486731.013
10 0 59389  54462.000000  0    4364300.621   4612664.972  -2680138.370
10 0 59389  54582.000000  0    4700458.628   4697324.345  -1826491.469
10 0 59389  54702.000000  0    4955313.574   4694844.175   -940749.109
10 0 59389  54822.000000  0    5122839.682   4606679.557    -38463.662
10 0 59389  54942.000000  0    5198584.260   4435887.728    864497.647
10 0 59389  55062.000000  0    5179778.413   4187050.179   1752238.488
10 0 59389  55182.000000  0    5065415.940   3866163.560   2609122.144
10 0 59389  55302.000000  0    4856294.952   3480501.051   3420056.635
10 0 59389  55422.000000  0    4555021.487   3038449.186   4170767.589
10 0 59389  55542.000000  0    4165977.023   2549324.159   4848053.309
10 0 59389  55662.000000  0    3695251.683   2023173.566   5440018.412
10 0 59389  55782.000000  0    3150540.719   1470567.434   5936281.935
10 0 59389  55902.000000  0    2541012.036    902382.851   6328154.224
10 0 59389  56022.000000  0    1877146.613    329588.227   6608781.684
10 0 59389  56142.000000  0    1170555.371   -236967.152   6773260.957
10 0 59389  56262.000000  0     433773.834   -786758.148   6818721.344
10 0 59389  56382.000000  0    -319961.525  -1309779.441   6744371.091
10 0 59389  56502.000000  0   -1076951.047  -1796727.199   6551509.693
10 0 59389  56622.000000  0   -1823280.050  -2239164.632   6243505.063
10 0 59389  56742.000000  0   -2545072.157  -2629667.604   5825738.169
10 0 59389  56862.000000  0   -3228747.441  -2961951.258   5305517.563
10 0 59389  56982.000000  0   -3861283.003  -3230974.960   4691957.822
10 0 59389  57102.000000  0   -4430465.640  -3433021.047   3995823.369
10 0 59389  57222.000000  0   -4925132.797  -3565746.856   3229342.981
10 0 59389  57342.000000  0   -5335397.535  -3628209.231   2405997.214
10 0 59389  57462.000000  0   -5652853.419  -3620861.474   1540280.247
10 0 59389  57582.000000  0   -5870751.931  -3545520.813    647439.300
10 0 59389  57702.000000  0   -5984148.070  -3405306.862   -256800.979
10 0 59389  57822.000000  0   -5990010.913  -3204553.748  -1156524.050
10 0 59389  57942.000000  0   -5887295.127  -2948696.909  -2035911.919
10 0 59389  58062.000000  0   -5676970.495  -2644137.569  -2879531.054
10 0 59389  58182.000000  0   -5362011.819  -2298090.107  -3672607.846
10 0 59389  58302.000000  0   -4947349.018  -1918415.669  -4401288.884
10 0 59389  58422.000000  0   -4439780.065  -1513446.703  -5052880.690
10 0 59389  58542.000000  0   -3847848.948  -1091806.453  -5616065.723
10 0 59389  58662.000000  0   -3181691.700   -662227.354  -6081090.006
10 0 59389  58782.000000  0   -2452855.584   -233372.970  -6439920.736
10 0 59389  58902.000000  0   -1674094.806    186332.938  -6686373.445
99
